IXPE                    
1 49954U 21121A   24111.58334491  .00014444  00000+0  11383-2 0  9998
2 49954   0.2305 100.3716 0009654 148.0514 184.2870 14.97370783129256
